PERSEUS-M1              
1 40039U 14033AF  26187.63822462  .00001444  00000+0  13515-3 0  9994
2 40039  97.9645 132.0906 0010416 228.2327 131.8004 14.95694147653547
POLYITAN-1              
1 40042U 14033AJ  26188.01799810  .00014746  00000+0  45003-3 0  9997
2 40042  98.0940 216.1644 0008445  87.2204 273.0003 15.34009336656635
TIGRISAT                
1 40043U 14033AK  26187.92329465  .00001560  00000+0  18432-3 0  9998
2 40043  97.7856 337.4856 0049358  11.5693 348.6644 14.85232145648553
AEROCUBE 6A             
1 40045U 14033AM  26187.72615363  .00004181  00000+0  35158-3 0  9999
2 40045  97.7237 354.4701 0037299 310.0222  49.7729 14.98288236649541
AEROCUBE 6B             
1 40046U 14033AN  26187.44257635  .00004220  00000+0  34147-3 0  9994
2 40046  97.7218 354.0216 0037815 301.1990  58.5528 14.99746993649641
CANX-4                  
1 40055U 14034C   26187.60622333  .00000917  00000+0  12484-3 0  9993
2 40055  98.3097  63.6301 0011764 313.3306  46.6924 14.81300885647409
CANX-5                  
1 40056U 14034D   26188.07726639  .00000799  00000+0  10969-3 0  9994
2 40056  98.3099  64.1631 0011730 311.9106  48.1105 14.81318663638286
UKUBE-1                 
1 40074U 14037F   26187.93339394  .00005565  00000+0  31198-3 0  9992
2 40074  98.4246 193.2841 0003367 102.9346 257.2258 15.13867295651541
BRITE-PL2 (HEWELIUSZ)   
1 40119U 14049B   26187.85492654  .00002031  00000+0  19243-3 0  9997
2 40119  97.9109 300.0087 0014891  49.1461 311.1047 14.94667012644380
AEROCUBE 5C             
1 40965U 15058B   26188.01793933  .00002265  00000+0  20599-3 0  9995
2 40965  64.7654 200.8931 0131793  55.5592 305.7892 14.91542419368614
AEROCUBE 7              
1 40966U 15058C   26187.68997801  .00003817  00000+0  30749-3 0  9990
2 40966  64.7609 183.7222 0121451  54.0290 307.2015 14.95859784368878
FOX-1A (AO-85)          
1 40967U 15058D   26188.07196220  .00002020  00000+0  18776-3 0  9992
2 40967  64.7734 217.1836 0131738  48.8938 312.3460 14.91057542116533
SINOD-D 1               
1 40968U 15058E   26187.73244957  .00003589  00000+0  28938-3 0  9998
2 40968  64.7736 197.6982 0120368  45.4075 315.6784 14.96035665119582
SNAP-3 ALICE            
1 40970U 15058G   26188.01380186  .00116847  00000+0  11304-2 0  9998
2 40970  64.7495  35.1385 0023490 354.8338   5.2564 15.65473252119984
LMRST-SAT               
1 40971U 15058H   26188.09945612  .00001971  00000+0  18477-3 0  9998
2 40971  64.7739 213.4739 0133299  50.8939 310.3936 14.90673643116522
SNAP-3 EDDIE            
1 40972U 15058J   26187.98823652  .00119451  00000+0  10957-2 0  9992
2 40972  64.7406  25.8038 0024354 357.6956   2.4076 15.66758291122123
PROPCUBE 3              
1 40973U 15058K   26188.01908858  .00002892  00000+0  24387-3 0  9993
2 40973  64.7669 190.5677 0125176  52.1365 309.0994 14.94372350117766
BISONSAT                
1 40974U 15058L   26187.94943844  .00012426  00000+0  58763-3 0  9998
2 40974  64.7579 109.7245 0081232  39.3666 321.3324 15.16768824118614
SNAP-3 JIMI             
1 40975U 15058M   26187.35984754  .00007626  00000+0  51670-3 0  9995
2 40975  64.7640 159.1012 0107215  47.7487 313.2663 15.02523493117104
PROPCUBE 1 (FLORA)      
1 40976U 15058N   26188.13981267  .00001610  00000+0  15981-3 0  9991
2 40976  64.7732 233.3940 0131904  53.1708 308.1416 14.89304026119239
SINOD-D 3               
1 40977U 15058P   26187.38460425  .00003553  00000+0  30148-3 0  9996
2 40977  64.7708 215.8665 0120399  50.5430 310.6262 14.94130258117629
RAVAN                   
1 41849U 16067B   26187.66258791  .00046734  00000+0  65190-3 0  9991
2 41849  97.9849  79.5105 0001483 280.9729  79.1358 15.56768949530724
CELTEE 1                
1 41850U 16067C   26187.56424572  .00004765  00000+0  22559-3 0  9994
2 41850  98.0649  55.4525 0002029 120.7122 239.4312 15.19883845528821
OPTICUBE 04             
1 41851U 16067D   26187.56538134  .00001886  00000+0  12097-3 0  9992
2 41851  98.0683  40.8590 0016763  55.4583 304.8224 15.09746613528093
AEROCUBE 8D             
1 41852U 16067E   26187.58366541  .00006643  00000+0  27194-3 0  9996
2 41852  98.0655  59.2307 0004930  77.9453 282.2334 15.24686709529022
AEROCUBE 8C             
1 41853U 16067F   26188.06477431  .00005788  00000+0  23555-3 0  9998
2 41853  98.0530  56.9510 0005110  10.9574 349.1772 15.24945674529092
CORVUS BC2              
1 42846U 17042X   26187.92375471  .00003109  00000+0  21448-3 0  9994
2 42846  97.4090 348.5092 0013943  49.1364 311.1070 15.06426063490035
CORVUS BC1              
1 42847U 17042Y   26188.04901480  .00002529  00000+0  17452-3 0  9999
2 42847  97.4125 349.4567 0012417  27.9267 332.2624 15.06593079490089
MAKERSAT 0              
1 43016U 17073D   26187.63911722  .00016571  00000+0  44083-3 0  9998
2 43016  97.4596  70.3150 0104976 202.8118 156.8443 15.32782580469440
SIRION PATHFINDER-2     
1 43759U 18099B   26187.67083206  .00004650  00000+0  25427-3 0  9998
2 43759  97.4242 236.2659 0007650 223.3987 136.6643 15.14731584415573
