OBJECT_NAME,OBJECT_ID,EPOCH,MEAN_MOTION,ECCENTRICITY,INCLINATION,RA_OF_ASC_NODE,ARG_OF_PERICENTER,MEAN_ANOMALY,EPHEMERIS_TYPE,CLASSIFICATION_TYPE,NORAD_CAT_ID,ELEMENT_SET_NO,REV_AT_EPOCH,BSTAR,MEAN_MOTION_DOT,MEAN_MOTION_DDOT
PERSEUS-M1,2014-033AF,2026-07-06T15:19:02.607168,14.95694147,.0010416,97.9645,132.0906,228.2327,131.8004,0,U,40039,999,65354,.13515E-3,.1444E-4,0
POLYITAN-1,2014-033AJ,2026-07-07T00:25:55.035840,15.34009336,.0008445,98.0940,216.1644,87.2204,273.0003,0,U,40042,999,65663,.45003E-3,.14746E-3,0
TIGRISAT,2014-033AK,2026-07-06T22:09:32.657760,14.85232145,.0049358,97.7856,337.4856,11.5693,348.6644,0,U,40043,999,64855,.18432E-3,.156E-4,0
AEROCUBE 6A,2014-033AM,2026-07-06T17:25:39.673632,14.98288236,.0037299,97.7237,354.4701,310.0222,49.7729,0,U,40045,999,64954,.35158E-3,.4181E-4,0
AEROCUBE 6B,2014-033AN,2026-07-06T10:37:18.596640,14.99746993,.0037815,97.7218,354.0216,301.1990,58.5528,0,U,40046,999,64964,.34147E-3,.422E-4,0
CANX-4,2014-034C,2026-07-06T14:32:57.695712,14.81300885,.0011764,98.3097,63.6301,313.3306,46.6924,0,U,40055,999,64740,.12484E-3,.917E-5,0
CANX-5,2014-034D,2026-07-07T01:51:15.816096,14.81318663,.001173,98.3099,64.1631,311.9106,48.1105,0,U,40056,999,63828,.10969E-3,.799E-5,0
UKUBE-1,2014-037F,2026-07-06T22:24:05.236416,15.13867295,.0003367,98.4246,193.2841,102.9346,257.2258,0,U,40074,999,65154,.31198E-3,.5565E-4,0
BRITE-PL2 (HEWELIUSZ),2014-049B,2026-07-06T20:31:05.653056,14.94667012,.0014891,97.9109,300.0087,49.1461,311.1047,0,U,40119,999,64438,.19243E-3,.2031E-4,0
AEROCUBE 5C,2015-058B,2026-07-07T00:25:49.958112,14.91542419,.0131793,64.7654,200.8931,55.5592,305.7892,0,U,40965,999,36861,.20599E-3,.2265E-4,0
AEROCUBE 7,2015-058C,2026-07-06T16:33:34.100064,14.95859784,.0121451,64.7609,183.7222,54.0290,307.2015,0,U,40966,999,36887,.30749E-3,.3817E-4,0
FOX-1A (AO-85),2015-058D,2026-07-07T01:43:37.534080,14.91057542,.0131738,64.7734,217.1836,48.8938,312.3460,0,U,40967,999,11653,.18776E-3,.202E-4,0
SINOD-D 1,2015-058E,2026-07-06T17:34:43.642848,14.96035665,.0120368,64.7736,197.6982,45.4075,315.6784,0,U,40968,999,11958,.28938E-3,.3589E-4,0
SNAP-3 ALICE,2015-058G,2026-07-07T00:19:52.480704,15.65473252,.002349,64.7495,35.1385,354.8338,5.2564,0,U,40970,999,11998,.11304E-2,.116847E-2,0
LMRST-SAT,2015-058H,2026-07-07T02:23:13.008768,14.90673643,.0133299,64.7739,213.4739,50.8939,310.3936,0,U,40971,999,11652,.18477E-3,.1971E-4,0
SNAP-3 EDDIE,2015-058J,2026-07-06T23:43:03.635328,15.66758291,.0024354,64.7406,25.8038,357.6956,2.4076,0,U,40972,999,12212,.10957E-2,.119451E-2,0
PROPCUBE 3,2015-058K,2026-07-07T00:27:29.253312,14.94372350,.0125176,64.7669,190.5677,52.1365,309.0994,0,U,40973,999,11776,.24387E-3,.2892E-4,0
BISONSAT,2015-058L,2026-07-06T22:47:11.481216,15.16768824,.0081232,64.7579,109.7245,39.3666,321.3324,0,U,40974,999,11861,.58763E-3,.12426E-3,0
SNAP-3 JIMI,2015-058M,2026-07-06T08:38:10.827456,15.02523493,.0107215,64.7640,159.1012,47.7487,313.2663,0,U,40975,999,11710,.51669655E-3,.7626E-4,0
PROPCUBE 1 (FLORA),2015-058N,2026-07-07T03:21:19.814688,14.89304026,.0131904,64.7732,233.3940,53.1708,308.1416,0,U,40976,999,11923,.15981E-3,.161E-4,0
SINOD-D 3,2015-058P,2026-07-06T09:13:49.807200,14.94130258,.01203993,64.7708,215.8665,50.5430,310.6262,0,U,40977,999,11762,.30148164E-3,.3553E-4,0
RAVAN,2016-067B,2026-07-06T15:54:07.595424,15.56768949,.0001483,97.9849,79.5105,280.9729,79.1358,0,U,41849,999,53072,.6519E-3,.46734E-3,0
CELTEE 1,2016-067C,2026-07-06T13:32:30.830208,15.19883845,.0002029,98.0649,55.4525,120.7122,239.4312,0,U,41850,999,52882,.22559E-3,.4765E-4,0
OPTICUBE 04,2016-067D,2026-07-06T13:34:08.947776,15.09746613,.0016763,98.0683,40.8590,55.4583,304.8224,0,U,41851,999,52809,.12097E-3,.1886E-4,0
AEROCUBE 8D,2016-067E,2026-07-06T14:00:28.691424,15.24686709,.000493,98.0655,59.2307,77.9453,282.2334,0,U,41852,999,52902,.27194E-3,.6643E-4,0
AEROCUBE 8C,2016-067F,2026-07-07T01:33:16.500384,15.24945674,.000511,98.0530,56.9510,10.9574,349.1772,0,U,41853,999,52909,.23555E-3,.5788E-4,0
CORVUS BC2,2017-042X,2026-07-06T22:10:12.406944,15.06426063,.0013943,97.4090,348.5092,49.1364,311.1070,0,U,42846,999,49003,.21448E-3,.3109E-4,0
CORVUS BC1,2017-042Y,2026-07-07T01:10:34.878720,15.06593079,.0012417,97.4125,349.4567,27.9267,332.2624,0,U,42847,999,49008,.17452E-3,.2529E-4,0
MAKERSAT 0,2017-073D,2026-07-06T15:20:19.727808,15.32782580,.0104976,97.4596,70.3150,202.8118,156.8443,0,U,43016,999,46944,.44083E-3,.16571E-3,0
SIRION PATHFINDER-2,2018-099B,2026-07-06T16:05:59.889984,15.14731584,.000765,97.4242,236.2659,223.3987,136.6643,0,U,43759,999,41557,.25427E-3,.465E-4,0
